INTELSAT 34             
1 40874C 15039A   20219.00000000 -.00000472  00000-0  00000-0 0  2194
2 40874   0.0421 270.0220 0000530 146.3409 203.1187  1.00269423    10
INTELSAT 34         [PM]
1 40874C 15039A   20219.30950232 -.00000287  00000-0  00000-0 0  2192
2 40874   0.0001  53.9312 0000432 352.0716 325.1995  1.00273781    16
INTELSAT 34             
1 40874C 15039A   20223.00000000 -.00000235  00000-0  00000-0 0  2231
2 40874   0.0298 279.1653 0000233 107.5765 236.6940  1.00271239    12
INTELSAT 31             
1 41581C 16035A   20219.00000000 -.00000062  00000-0  00000-0 0  2192
2 41581   0.0275 204.6039 0001533   5.2024  10.1205  1.00270172    14
INTELSAT 31         [PM]
1 41581C 16035A   20219.41500000 -.00000063  00000-0  00000-0 0  2193
2 41581   0.0360 235.0228 0001583 337.7724 156.9360  1.00273451    16
INTELSAT 31             
1 41581C 16035A   20223.00000000 -.00000063  00000-0  00000-0 0  2233
2 41581   0.0315 244.1905 0001695 336.5737   3.1182  1.00271263    18
INTELSAT 36             
1 41747C 16053A   20219.00000000  .00000060  00000-0  00000-0 0  2193
2 41747   0.0047  54.8798 0001789 319.8610   8.7433  1.00271457    13
INTELSAT 36         [PM]
1 41747C 16053A   20219.42116898  .00000066  00000-0  00000-0 0  2198
2 41747   0.0128  28.0181 0001706 333.2353 174.2651  1.00271920    11
INTELSAT 36             
1 41747C 16053A   20223.00000000  .00000066  00000-0  00000-0 0  2239
2 41747   0.0110  31.9327 0001828 330.7296  24.7696  1.00271281    18
INTELSAT 33E            
1 41748C 16053B   20219.00000000  .00000139  00000-0  00000-0 0  2191
2 41748   0.0094  74.4442 0002073  61.9641 238.5710  1.00270582    15
INTELSAT 33E        [PM]
1 41748C 16053B   20221.76750000  .00000130  00000-0  00000-0 0  2213
2 41748   0.0056  49.2253 0002016  98.2557 146.5184  1.00271516    10
INTELSAT 33E            
1 41748C 16053B   20222.93571759  .00000139  00000-0  00000-0 0  2225
2 41748   0.0076  50.6709 0001942 101.1502 203.8889  1.00272042    19
INTELSAT 33E        [PM]
1 41748C 16053B   20229.74583333  .00000144  00000-0  00000-0 0  2295
2 41748   0.0062  76.1851 0001789  89.3613 128.5419  1.00272450    19
INTELSAT 32E        [PM]
1 41945C 17007B   20218.22771991 -.00000178  00000-0  00000-0 0  2180
2 41945   0.0000  99.6465 0000452 304.0252 309.3342  1.00274357    15
INTELSAT 32E            
1 41945C 17007B   20219.00000000 -.00000171  00000-0  00000-0 0  2197
2 41945   0.0030 107.7257 0000274 353.7894 170.2779  1.00270421    10
INTELSAT 32E            
1 41945C 17007B   20222.93571759 -.00004392  00000-0  00000-0 0  2220
2 41945   0.0331 277.6693 0000207 102.6945 232.1928  1.00270829    15
INTELSAT 35E            
1 42818C 17041A   20219.00000000 -.00000104  00000-0  00000-0 0  2191
2 42818   0.0489 264.4775 0001801 234.3768 141.6261  1.00273458    16
INTELSAT 35E        [PM]
1 42818C 17041A   20221.53054398 -.00000148  00000-0  00000-0 0  2212
2 42818   0.0526 256.7495 0001534 251.1017 326.1356  1.00272870    10
INTELSAT 35E            
1 42818C 17041A   20222.93571759 -.00003686  00000-0  00000-0 0  2223
2 42818   0.0492 255.7265 0001439 254.2311 111.2841  1.00272596    18
INTELSAT 35E        [PM]
1 42818C 17041A   20223.42626157 -.00003768  00000-0  00000-0 0  2233
2 42818   0.0479 255.8162 0001372 257.5426 284.9634  1.00272623    18
INTELSAT 37E            
1 42950C 17059A   20219.00000000 -.00000092  00000-0  00000-0 0  2193
2 42950   0.0023 140.6719 0003317   8.5743 147.7221  1.00272664    19
INTELSAT 37E            
1 42950C 17059A   20222.93571759 -.00000055  00000-0  00000-0 0  2226
2 42950   0.0223 224.5484 0003209 294.1538 119.0176  1.00272436    15
INTELSAT 37E        [PM]
1 42950C 17059A   20222.98194444 -.00000054  00000-0  00000-0 0  2222
2 42950   0.0198 219.7638 0003213 299.2877 135.3555  1.00272499    11
AZERSPACE 2             
1 43632C 18074A   20219.00000000  .00000227  00000-0  00000-0 0  2198
2 43632   0.0085 111.2276 0001785  34.5735 214.2737  1.00271628    15
AZERSPACE 2             
1 43632C 18074A   20223.00000000  .00000226  00000-0  00000-0 0  2237
2 43632   0.0009  81.1374 0001424  70.8604 212.0280  1.00269812    14
HORIZONS 3E             
1 43633C 18074B   20219.00000000  .00000013  00000-0  00000-0 0  2192
2 43633   0.0030 183.3796 0000329  73.6740 226.9244  1.00270945    10
HORIZONS 3E             
1 43633C 18074B   20223.00000000  .00000057  00000-0  00000-0 0  2230
2 43633   0.0041 219.3677 0000618  59.8227 208.7344  1.00270674    15
INTELSAT 39         [PM]
1 44476C 19049B   20218.35116898  .00000143  00000-0  00000-0 0  2184
2 44476   0.0004  33.1472 0000924 294.3289 175.2244  1.00272530    19
INTELSAT 39             
1 44476C 19049B   20219.00000000  .00000005  00000-0  00000-0 0  2192
2 44476   0.0000 139.2684 0000899 189.4093  48.2424  1.00270746    12
INTELSAT 39             
1 44476C 19049B   20223.00000000  .00000124  00000-0  00000-0 0  2234
2 44476   0.0271 279.0041 0001233  41.4715  60.3994  1.00271815    18
